{
  "type": "FeatureCollection",
  "features": [
    {
      "type": "Feature",
      "properties": {
        "norad_id": 25590,
        "name": "COSMOS 2361",
        "group": "musson",
        "lat": 60.571688211913596,
        "lon": -9.9600076746001,
        "alt_km": 1004.3885502122475,
        "timestamp": "2025-12-21T20:41:08.231622+00:00",
        "meta_object_name": "COSMOS 2361",
        "meta_object_id": "1998-076A",
        "meta_epoch": "2025-12-21T12:14:07.609056",
        "meta_mean_motion": 13.73218488,
        "meta_eccentricity": 0.00301997,
        "meta_inclination": 82.9341,
        "meta_ra_of_asc_node": 337.5995,
        "meta_arg_of_pericenter": 240.1953,
        "meta_mean_anomaly": 241.617,
        "meta_ephemeris_type": 0,
        "meta_classification_type": "U",
        "meta_norad_cat_id": 25590,
        "meta_element_set_no": 999,
        "meta_rev_at_epoch": 35231,
        "meta_bstar": 3.8356272e-05,
        "meta_mean_motion_dot": 5e-07,
        "meta_mean_motion_ddot": 0,
        "tle_line1": "1 25590U 98076A   25355.50981029  .00000050  00000+0  38356-4 0  9998",
        "tle_line2": "2 25590  82.9341 337.5995 0030199 240.1953 241.6170 13.73218488352317"
      },
      "geometry": {
        "type": "Point",
        "coordinates": [
          -9.9600076746001,
          60.571688211913596
        ]
      }
    },
    {
      "type": "Feature",
      "properties": {
        "norad_id": 26818,
        "name": "COSMOS 2378",
        "group": "musson",
        "lat": 15.496089314831469,
        "lon": 170.98781378667002,
        "alt_km": 961.9853558848781,
        "timestamp": "2025-12-21T20:41:08.231641+00:00",
        "meta_object_name": "COSMOS 2378",
        "meta_object_id": "2001-023A",
        "meta_epoch": "2025-12-21T11:40:53.662080",
        "meta_mean_motion": 13.74142657,
        "meta_eccentricity": 0.0032939,
        "meta_inclination": 82.927,
        "meta_ra_of_asc_node": 353.2385,
        "meta_arg_of_pericenter": 180.3149,
        "meta_mean_anomaly": 289.174,
        "meta_ephemeris_type": 0,
        "meta_classification_type": "U",
        "meta_norad_cat_id": 26818,
        "meta_element_set_no": 999,
        "meta_rev_at_epoch": 23043,
        "meta_bstar": 2.4373324e-05,
        "meta_mean_motion_dot": 3.8e-07,
        "meta_mean_motion_ddot": 0,
        "tle_line1": "1 26818U 01023A   25355.48673220  .00000038  00000+0  24373-4 0  9996",
        "tle_line2": "2 26818  82.9270 353.2385 0032939 180.3149 289.1740 13.74142657230439"
      },
      "geometry": {
        "type": "Point",
        "coordinates": [
          170.98781378667002,
          15.496089314831469
        ]
      }
    },
    {
      "type": "Feature",
      "properties": {
        "norad_id": 27436,
        "name": "COSMOS 2389",
        "group": "musson",
        "lat": 44.07175390052408,
        "lon": -52.888492178903874,
        "alt_km": 942.9601955686076,
        "timestamp": "2025-12-21T20:41:08.231652+00:00",
        "meta_object_name": "COSMOS 2389",
        "meta_object_id": "2002-026A",
        "meta_epoch": "2025-12-21T05:18:49.493952",
        "meta_mean_motion": 13.75155469,
        "meta_eccentricity": 0.0047292,
        "meta_inclination": 82.951,
        "meta_ra_of_asc_node": 300.7059,
        "meta_arg_of_pericenter": 37.6336,
        "meta_mean_anomaly": 77.8383,
        "meta_ephemeris_type": 0,
        "meta_classification_type": "U",
        "meta_norad_cat_id": 27436,
        "meta_element_set_no": 999,
        "meta_rev_at_epoch": 18265,
        "meta_bstar": 3.7349e-05,
        "meta_mean_motion_dot": 5.1e-07,
        "meta_mean_motion_ddot": 0,
        "tle_line1": "1 27436U 02026A   25355.22140618  .00000051  00000+0  37349-4 0  9991",
        "tle_line2": "2 27436  82.9510 300.7059 0047292  37.6336  77.8383 13.75155469182659"
      },
      "geometry": {
        "type": "Point",
        "coordinates": [
          -52.888492178903874,
          44.07175390052408
        ]
      }
    },
    {
      "type": "Feature",
      "properties": {
        "norad_id": 27818,
        "name": "COSMOS 2398",
        "group": "musson",
        "lat": -82.06723274158877,
        "lon": 148.6318073846985,
        "alt_km": 1022.5082596588309,
        "timestamp": "2025-12-21T20:41:08.231663+00:00",
        "meta_object_name": "COSMOS 2398",
        "meta_object_id": "2003-023A",
        "meta_epoch": "2025-12-21T13:14:03.083712",
        "meta_mean_motion": 13.72386565,
        "meta_eccentricity": 0.00327187,
        "meta_inclination": 82.9484,
        "meta_ra_of_asc_node": 266.2051,
        "meta_arg_of_pericenter": 88.3185,
        "meta_mean_anomaly": 84.9577,
        "meta_ephemeris_type": 0,
        "meta_classification_type": "U",
        "meta_norad_cat_id": 27818,
        "meta_element_set_no": 999,
        "meta_rev_at_epoch": 12937,
        "meta_bstar": 5.8714195e-05,
        "meta_mean_motion_dot": 6.9e-07,
        "meta_mean_motion_ddot": 0,
        "tle_line1": "1 27818U 03023A   25355.55142458  .00000069  00000+0  58714-4 0  9991",
        "tle_line2": "2 27818  82.9484 266.2051 0032718  88.3185  84.9577 13.72386565129377"
      },
      "geometry": {
        "type": "Point",
        "coordinates": [
          148.6318073846985,
          -82.06723274158877
        ]
      }
    },
    {
      "type": "Feature",
      "properties": {
        "norad_id": 28380,
        "name": "COSMOS 2407",
        "group": "musson",
        "lat": -50.28559838999434,
        "lon": 34.69418089468559,
        "alt_km": 1011.3194089542421,
        "timestamp": "2025-12-21T20:41:08.231673+00:00",
        "meta_object_name": "COSMOS 2407",
        "meta_object_id": "2004-028A",
        "meta_epoch": "2025-12-21T14:24:34.609248",
        "meta_mean_motion": 13.76314649,
        "meta_eccentricity": 0.00399211,
        "meta_inclination": 82.9597,
        "meta_ra_of_asc_node": 206.3322,
        "meta_arg_of_pericenter": 30.6809,
        "meta_mean_anomaly": 345.284,
        "meta_ephemeris_type": 0,
        "meta_classification_type": "U",
        "meta_norad_cat_id": 28380,
        "meta_element_set_no": 999,
        "meta_rev_at_epoch": 7545,
        "meta_bstar": 4.7774096e-05,
        "meta_mean_motion_dot": 6.2e-07,
        "meta_mean_motion_ddot": 0,
        "tle_line1": "1 28380U 04028A   25355.60040057  .00000062  00000+0  47774-4 0  9997",
        "tle_line2": "2 28380  82.9597 206.3322 0039921  30.6809 345.2840 13.76314649 75452"
      },
      "geometry": {
        "type": "Point",
        "coordinates": [
          34.69418089468559,
          -50.28559838999434
        ]
      }
    },
    {
      "type": "Feature",
      "properties": {
        "norad_id": 28521,
        "name": "COSMOS 2414",
        "group": "musson",
        "lat": 24.94651420716622,
        "lon": -5.538743824539384,
        "alt_km": 912.154738954544,
        "timestamp": "2025-12-21T20:41:08.231683+00:00",
        "meta_object_name": "COSMOS 2414",
        "meta_object_id": "2005-002A",
        "meta_epoch": "2025-12-21T13:01:30.405792",
        "meta_mean_motion": 13.87904154,
        "meta_eccentricity": 0.00413129,
        "meta_inclination": 82.9488,
        "meta_ra_of_asc_node": 178.0032,
        "meta_arg_of_pericenter": 115.2303,
        "meta_mean_anomaly": 245.3152,
        "meta_ephemeris_type": 0,
        "meta_classification_type": "U",
        "meta_norad_cat_id": 28521,
        "meta_element_set_no": 999,
        "meta_rev_at_epoch": 5917,
        "meta_bstar": 4.6392264e-05,
        "meta_mean_motion_dot": 7.2e-07,
        "meta_mean_motion_ddot": 0,
        "tle_line1": "1 28521U 05002A   25355.54271303  .00000072  00000+0  46392-4 0  9996",
        "tle_line2": "2 28521  82.9488 178.0032 0041312 115.2303 245.3152 13.87904154 59172"
      },
      "geometry": {
        "type": "Point",
        "coordinates": [
          -5.538743824539384,
          24.94651420716622
        ]
      }
    },
    {
      "type": "Feature",
      "properties": {
        "norad_id": 32052,
        "name": "COSMOS 2429",
        "group": "musson",
        "lat": -49.45815695159123,
        "lon": 164.86544250582622,
        "alt_km": 1010.7094080305269,
        "timestamp": "2025-12-21T20:41:08.231695+00:00",
        "meta_object_name": "COSMOS 2429",
        "meta_object_id": "2007-038A",
        "meta_epoch": "2025-12-21T10:50:20.529600",
        "meta_mean_motion": 13.7515024,
        "meta_eccentricity": 0.00387423,
        "meta_inclination": 82.9806,
        "meta_ra_of_asc_node": 336.8861,
        "meta_arg_of_pericenter": 13.9449,
        "meta_mean_anomaly": 346.2768,
        "meta_ephemeris_type": 0,
        "meta_classification_type": "U",
        "meta_norad_cat_id": 32052,
        "meta_element_set_no": 999,
        "meta_rev_at_epoch": 91722,
        "meta_bstar": 3.5701696e-05,
        "meta_mean_motion_dot": 5e-07,
        "meta_mean_motion_ddot": 0,
        "tle_line1": "1 32052U 07038A   25355.45162650  .00000050  00000+0  35702-4 0  9994",
        "tle_line2": "2 32052  82.9806 336.8861 0038742  13.9449 346.2768 13.75150240917221"
      },
      "geometry": {
        "type": "Point",
        "coordinates": [
          164.86544250582622,
          -49.45815695159123
        ]
      }
    },
    {
      "type": "Feature",
      "properties": {
        "norad_id": 35635,
        "name": "COSMOS 2454",
        "group": "musson",
        "lat": -82.8921153579685,
        "lon": 79.17169302489827,
        "alt_km": 947.2603637351522,
        "timestamp": "2025-12-21T20:41:08.231711+00:00",
        "meta_object_name": "COSMOS 2454",
        "meta_object_id": "2009-039A",
        "meta_epoch": "2025-12-21T12:45:18.930240",
        "meta_mean_motion": 13.8992965,
        "meta_eccentricity": 0.00201793,
        "meta_inclination": 82.9557,
        "meta_ra_of_asc_node": 161.9803,
        "meta_arg_of_pericenter": 50.1646,
        "meta_mean_anomaly": 8.4587,
        "meta_ephemeris_type": 0,
        "meta_classification_type": "U",
        "meta_norad_cat_id": 35635,
        "meta_element_set_no": 999,
        "meta_rev_at_epoch": 83272,
        "meta_bstar": 3.079993e-05,
        "meta_mean_motion_dot": 5.4e-07,
        "meta_mean_motion_ddot": 0,
        "tle_line1": "1 35635U 09039A   25355.53146910  .00000054  00000+0  30800-4 0  9995",
        "tle_line2": "2 35635  82.9557 161.9803 0020179  50.1646   8.4587 13.89929650832725"
      },
      "geometry": {
        "type": "Point",
        "coordinates": [
          79.17169302489827,
          -82.8921153579685
        ]
      }
    },
    {
      "type": "Feature",
      "properties": {
        "norad_id": 36519,
        "name": "COSMOS 2463",
        "group": "musson",
        "lat": 70.56427646134256,
        "lon": 40.50683295343024,
        "alt_km": 1012.0784391014467,
        "timestamp": "2025-12-21T20:41:08.231724+00:00",
        "meta_object_name": "COSMOS 2463",
        "meta_object_id": "2010-017A",
        "meta_epoch": "2025-12-21T12:08:15.115200",
        "meta_mean_motion": 13.71649866,
        "meta_eccentricity": 0.00347568,
        "meta_inclination": 82.9604,
        "meta_ra_of_asc_node": 20.2705,
        "meta_arg_of_pericenter": 262.8286,
        "meta_mean_anomaly": 211.2151,
        "meta_ephemeris_type": 0,
        "meta_classification_type": "U",
        "meta_norad_cat_id": 36519,
        "meta_element_set_no": 999,
        "meta_rev_at_epoch": 78357,
        "meta_bstar": 4.0001614e-05,
        "meta_mean_motion_dot": 5.1e-07,
        "meta_mean_motion_ddot": 0,
        "tle_line1": "1 36519U 10017A   25355.50573050  .00000051  00000+0  40002-4 0  9993",
        "tle_line2": "2 36519  82.9604  20.2705 0034756 262.8286 211.2151 13.71649866783574"
      },
      "geometry": {
        "type": "Point",
        "coordinates": [
          40.50683295343024,
          70.56427646134256
        ]
      }
    }
  ]
}